OBJECT_NAME,OBJECT_ID,EPOCH,MEAN_MOTION,ECCENTRICITY,INCLINATION,RA_OF_ASC_NODE,ARG_OF_PERICENTER,MEAN_ANOMALY,EPHEMERIS_TYPE,CLASSIFICATION_TYPE,NORAD_CAT_ID,ELEMENT_SET_NO,REV_AT_EPOCH,BSTAR,MEAN_MOTION_DOT,MEAN_MOTION_DDOT
DTUSAT-2,2014-033W,2026-07-06T22:02:28.279968,15.15282505,.0008695,98.0877,186.9019,156.2531,203.9103,0,U,40030,999,65567,.26425E-3,.4903E-4,0
QB50P2,2014-033Y,2026-07-06T21:51:30.730176,15.15433513,.0009359,98.0762,186.0224,106.7260,253.4998,0,U,40032,999,65565,.26834E-3,.5002E-4,0
PERSEUS-M1,2014-033AF,2026-07-06T15:19:02.607168,14.95694147,.0010416,97.9645,132.0906,228.2327,131.8004,0,U,40039,999,65354,.13515E-3,.1444E-4,0
POLYITAN-1,2014-033AJ,2026-07-07T00:25:55.035840,15.34009336,.0008445,98.0940,216.1644,87.2204,273.0003,0,U,40042,999,65663,.45003E-3,.14746E-3,0
TIGRISAT,2014-033AK,2026-07-06T22:09:32.657760,14.85232145,.0049358,97.7856,337.4856,11.5693,348.6644,0,U,40043,999,64855,.18432E-3,.156E-4,0
CANX-4,2014-034C,2026-07-06T14:32:57.695712,14.81300885,.0011764,98.3097,63.6301,313.3306,46.6924,0,U,40055,999,64740,.12484E-3,.917E-5,0
CANX-5,2014-034D,2026-07-07T01:51:15.816096,14.81318663,.001173,98.3099,64.1631,311.9106,48.1105,0,U,40056,999,63828,.10969E-3,.799E-5,0
GONETS-M 10,2014-036C,2026-07-07T04:39:03.340224,12.42946988,.0022997,82.5124,295.2487,98.9901,261.3783,0,U,40063,999,54473,.1706E-2,.247E-5,0
METEOR-M 2,2014-037A,2026-07-07T04:57:40.647744,14.21468143,.0005674,98.5129,163.2372,351.6102,8.4980,0,U,40069,999,62216,.18663E-3,.366E-5,0
DX1,2014-037C,2026-07-07T04:07:34.002048,14.90048534,.000647,98.3877,151.0879,197.3990,162.7005,0,U,40071,999,64908,.22422E-3,.2103E-4,0
UKUBE-1,2014-037F,2026-07-06T22:24:05.236416,15.13867295,.0003367,98.4246,193.2841,102.9346,257.2258,0,U,40074,999,65154,.31198E-3,.5565E-4,0
GAOFEN-2,2014-049A,2026-07-07T04:13:47.224128,14.80920813,.0007662,98.0095,252.3639,158.1268,202.0272,0,U,40118,999,64219,.15696E-4,.68E-6,0
BRITE-PL2 (HEWELIUSZ),2014-049B,2026-07-06T20:31:05.653056,14.94667012,.0014891,97.9109,300.0087,49.1461,311.1047,0,U,40119,999,64438,.19243E-3,.2031E-4,0
CBERS 4,2014-079A,2026-07-07T04:20:41.517312,14.35514724,.0001117,98.3516,244.3847,50.6558,309.4727,0,U,40336,999,60682,.23435E-4,.25E-6,0
SMAP,2015-003A,2026-07-07T04:22:41.304000,14.63384435,.0001536,98.1279,194.9938,97.4375,262.7001,0,U,40376,999,61054,.80383E-4,.369E-5,0
GONETS-M 11,2015-020A,2026-07-07T05:07:04.632384,12.42877521,.0015679,82.4864,18.5103,321.7796,38.2171,0,U,40552,999,51122,-.12281E-2,-.16E-5,0
GONETS-M 12,2015-020B,2026-07-07T04:28:35.517216,12.42891657,.0014444,82.4896,19.6560,306.0872,53.8869,0,U,40553,999,51121,-.43308E-3,-.5E-6,0
GONETS-M 13,2015-020C,2026-07-07T03:50:53.180736,12.42871117,.0012882,82.4859,18.2815,290.3318,69.6377,0,U,40554,999,51118,-.97234E-3,-.125E-5,0
DMC3-FM1,2015-032A,2026-07-07T03:21:56.495808,14.85763419,.0005732,97.6436,52.5299,4.7121,355.4148,0,U,40715,999,59287,.6908E-4,.549E-5,0
DMC3-FM2,2015-032B,2026-07-07T03:53:34.988928,14.85767104,.0006368,97.6486,54.1385,7.8262,352.3052,0,U,40716,999,59287,.40242E-4,.298E-5,0
DMC3-FM3,2015-032C,2026-07-07T04:27:22.806432,14.85758029,.0005518,97.6538,55.9266,10.0709,350.0617,0,U,40717,999,59288,.11462E-3,.944E-5,0
CARBONITE 1 (CBNT-1),2015-032D,2026-07-07T03:30:17.377344,14.83652583,.0013213,97.6522,5.3777,225.3668,134.6470,0,U,40718,999,59230,.19227E-3,.1538E-4,0
LILACSAT-2,2015-049K,2026-07-07T04:45:10.172160,15.52151126,.0007723,97.4628,225.8060,165.7696,194.3775,0,U,40908,999,59885,.24251E-3,.14591E-3,0
COSMOS 2507 (RODNIK-S 13),2015-050A,2026-07-07T02:44:39.584256,12.42927438,.0009294,82.4909,67.2623,312.5769,47.4525,0,U,40920,999,48933,.54196E-4,.17E-6,0
COSMOS 2508 (RODNIK-S 14),2015-050B,2026-07-07T03:36:04.487616,12.42915124,.0014315,82.4861,65.7374,344.7433,15.3213,0,U,40921,999,48932,.31436E-3,.53E-6,0
COSMOS 2509 (RODNIK-S 15),2015-050C,2026-07-07T04:06:04.190112,12.42884248,.0014992,82.4869,65.8289,1.5906,358.5218,0,U,40922,999,48936,-.43143E-3,-.5E-6,0
