DTUSAT-2                
1 40030U 14033W   26187.91838287  .00004903  00000+0  26425-3 0  9995
2 40030  98.0877 186.9019 0008695 156.2531 203.9103 15.15282505655674
QB50P2                  
1 40032U 14033Y   26187.91077234  .00005002  00000+0  26834-3 0  9999
2 40032  98.0762 186.0224 0009359 106.7260 253.4998 15.15433513655652
PERSEUS-M1              
1 40039U 14033AF  26187.63822462  .00001444  00000+0  13515-3 0  9994
2 40039  97.9645 132.0906 0010416 228.2327 131.8004 14.95694147653547
POLYITAN-1              
1 40042U 14033AJ  26188.01799810  .00014746  00000+0  45003-3 0  9997
2 40042  98.0940 216.1644 0008445  87.2204 273.0003 15.34009336656635
TIGRISAT                
1 40043U 14033AK  26187.92329465  .00001560  00000+0  18432-3 0  9998
2 40043  97.7856 337.4856 0049358  11.5693 348.6644 14.85232145648553
CANX-4                  
1 40055U 14034C   26187.60622333  .00000917  00000+0  12484-3 0  9993
2 40055  98.3097  63.6301 0011764 313.3306  46.6924 14.81300885647409
CANX-5                  
1 40056U 14034D   26188.07726639  .00000799  00000+0  10969-3 0  9994
2 40056  98.3099  64.1631 0011730 311.9106  48.1105 14.81318663638286
GONETS-M 10             
1 40063U 14036C   26188.19378866  .00000247  00000+0  17060-2 0  9998
2 40063  82.5124 295.2487 0022997  98.9901 261.3783 12.42946988544735
METEOR-M 2              
1 40069U 14037A   26188.20672046  .00000366  00000+0  18663-3 0  9997
2 40069  98.5129 163.2372 0005674 351.6102   8.4980 14.21468143622169
DX1                     
1 40071U 14037C   26188.17192132  .00002103  00000+0  22422-3 0  9998
2 40071  98.3877 151.0879 0006470 197.3990 162.7005 14.90048534649088
UKUBE-1                 
1 40074U 14037F   26187.93339394  .00005565  00000+0  31198-3 0  9992
2 40074  98.4246 193.2841 0003367 102.9346 257.2258 15.13867295651541
GAOFEN-2                
1 40118U 14049A   26188.17624102  .00000068  00000+0  15696-4 0  9994
2 40118  98.0095 252.3639 0007662 158.1268 202.0272 14.80920813642192
BRITE-PL2 (HEWELIUSZ)   
1 40119U 14049B   26187.85492654  .00002031  00000+0  19243-3 0  9997
2 40119  97.9109 300.0087 0014891  49.1461 311.1047 14.94667012644380
CBERS 4                 
1 40336U 14079A   26188.18103608  .00000025  00000+0  23435-4 0  9996
2 40336  98.3516 244.3847 0001117  50.6558 309.4727 14.35514724606821
SMAP                    
1 40376U 15003A   26188.18242250  .00000369  00000+0  80383-4 0  9991
2 40376  98.1279 194.9938 0001536  97.4375 262.7001 14.63384435610546
GONETS-M 11             
1 40552U 15020A   26188.21324806 -.00000160  00000+0 -12281-2 0  9999
2 40552  82.4864  18.5103 0015679 321.7796  38.2171 12.42877521511223
GONETS-M 12             
1 40553U 15020B   26188.18652219 -.00000050  00000+0 -43308-3 0  9991
2 40553  82.4896  19.6560 0014444 306.0872  53.8869 12.42891657511210
GONETS-M 13             
1 40554U 15020C   26188.16033774 -.00000125  00000+0 -97234-3 0  9999
2 40554  82.4859  18.2815 0012882 290.3318  69.6377 12.42871117511186
DMC3-FM1                
1 40715U 15032A   26188.14023722  .00000549  00000+0  69080-4 0  9998
2 40715  97.6436  52.5299 0005732   4.7121 355.4148 14.85763419592877
DMC3-FM2                
1 40716U 15032B   26188.16221052  .00000298  00000+0  40242-4 0  9997
2 40716  97.6486  54.1385 0006368   7.8262 352.3052 14.85767104592878
DMC3-FM3                
1 40717U 15032C   26188.18568063  .00000944  00000+0  11462-3 0  9995
2 40717  97.6538  55.9266 0005518  10.0709 350.0617 14.85758029592881
CARBONITE 1 (CBNT-1)    
1 40718U 15032D   26188.14603446  .00001538  00000+0  19227-3 0  9994
2 40718  97.6522   5.3777 0013213 225.3668 134.6470 14.83652583592303
LILACSAT-2              
1 40908U 15049K   26188.19803440  .00014591  00000+0  24251-3 0  9990
2 40908  97.4628 225.8060 0007723 165.7696 194.3775 15.52151126598851
COSMOS 2507 (RODNIK-S *)
1 40920U 15050A   26188.11434704  .00000017  00000+0  54196-4 0  9991
2 40920  82.4909  67.2623 0009294 312.5769  47.4525 12.42927438489338
COSMOS 2508 (RODNIK-S *)
1 40921U 15050B   26188.15005194  .00000053  00000+0  31436-3 0  9994
2 40921  82.4861  65.7374 0014315 344.7433  15.3213 12.42915124489323
COSMOS 2509 (RODNIK-S *)
1 40922U 15050C   26188.17088183 -.00000050  00000+0 -43143-3 0  9993
2 40922  82.4869  65.8289 0014992   1.5906 358.5218 12.42884248489365
